NORAD_CAT_ID,OBJECT_NAME,OBJECT_TYPE,EPOCH,MEAN_MOTION,ECCENTRICITY,INCLINATION,RA_OF_ASC_NODE,ARG_OF_PERICENTER,MEAN_ANOMALY,BSTAR,MEAN_MOTION_DOT,MEAN_MOTION_DDOT,TLE_LINE0,TLE_LINE1,TLE_LINE2,SEMIMAJOR_AXIS,PERIOD,APOGEE,PERIGEE,DECAYED
50168.0,STARLINK-3296,PAYLOAD,2022-09-18 05:06:18,15.08837546,0.0001848,53.2172,183.5331,47.6306,312.4843,1.9152e-05,1.7e-07,0.0,0 STARLINK-3296,1 50168U 21125N   22261.21270973  .00000017  00000-0  19152-4 0  9995,2 50168  53.2172 183.5331 0001848  47.6306 312.4843 15.08837546 45105,6917.888000000001,95.438,541.031,538.474,0.0
50168.0,STARLINK-3296,PAYLOAD,2022-09-18 19:24:46,15.08846341,0.0001841999999999,53.2161,180.8569,50.7473,309.3683,0.00040009,6.086e-05,0.0,0 STARLINK-3296,1 50168U 21125N   22261.80886725  .00006086  00000-0  40009-3 0  9994,2 50168  53.2161 180.8569 0001842  50.7473 309.3683 15.08846341 45199,6917.861,95.437,541.0,538.452,0.0
50168.0,STARLINK-3296,PAYLOAD,2022-09-19 01:46:18,15.08852394,0.0001883,53.2158,179.6674,49.6274,310.4882,0.00054541,8.406e-05,0.0,0 STARLINK-3296,1 50168U 21125N   22262.07382827  .00008406  00000-0  54541-3 0  9992,2 50168  53.2158 179.6674 0001883  49.6274 310.4882 15.08852394 45233,6917.843000000003,95.437,541.01,538.405,0.0
50168.0,STARLINK-3296,PAYLOAD,2022-09-19 14:29:23,15.08850666,0.0001899999999999,53.2159,177.2876,52.1736,307.9428,0.00017678,2.527e-05,0.0,0 STARLINK-3296,1 50168U 21125N   22262.60374487  .00002527  00000-0  17678-3 0  9992,2 50168  53.2159 177.2876 0001900  52.1736 307.9428 15.08850666 42216,6917.848000000001,95.437,541.0269999999998,538.398,0.0
50168.0,STARLINK-3296,PAYLOAD,2022-09-20 11:09:24,15.08847144,0.0001945,53.216,173.4218,50.7581,309.3583,7.799e-05,9.53e-06,0.0,0 STARLINK-3296,1 50168U 21125N   22263.46486332  .00000953  00000-0  77990-4 0  9995,2 50168  53.2160 173.4218 0001945  50.7581 309.3583 15.08847144 42346,6917.859,95.437,541.069,538.378,0.0
50168.0,STARLINK-3296,PAYLOAD,2022-09-20 12:44:47,15.08846574,0.0002016,53.2156,173.1263,49.233,310.8837,5.5081e-05,5.89e-06,0.0,0 STARLINK-3296,1 50168U 21125N   22263.53110406  .00000589  00000-0  55081-4 0  9991,2 50168  53.2156 173.1263 0002016  49.2330 310.8837 15.08846574 45453,6917.86,95.437,541.12,538.331,0.0
50168.0,STARLINK-3296,PAYLOAD,2022-09-20 19:06:20,15.08838486,0.0002008999999999,53.2157,171.9369,49.4319,310.6848,-0.00011205,-2.071e-05,0.0,0 STARLINK-3296,1 50168U 21125N   22263.79606753 -.00002071  00000-0 -11205-3 0  9993,2 50168  53.2157 171.9369 0002009  49.4319 310.6848 15.08838486 42391,6917.885,95.438,541.14,538.36,0.0
50168.0,STARLINK-3296,PAYLOAD,2022-09-20 20:41:43,15.08839384,0.000173,53.2158,171.638,54.9559,305.1595,-9.0131e-05,-1.722e-05,0.0,0 STARLINK-3296,1 50168U 21125N   22263.86230623 -.00001722  00000-0 -90131-4 0  9998,2 50168  53.2158 171.6380 0001730  54.9559 305.1595 15.08839384 45501,6917.882,95.438,540.944,538.55,0.0
50168.0,STARLINK-3296,PAYLOAD,2022-09-21 20:32:30,15.08835687,0.0001804,53.2161,167.1773,58.0331,302.0837,5.3826e-05,5.69e-06,0.0,0 STARLINK-3296,1 50168U 21125N   22264.85590984  .00000569  00000-0  53826-4 0  9993,2 50168  53.2161 167.1773 0001804  58.0331 302.0837 15.08835687 45659,6917.894,95.438,541.007,538.511,0.0
50168.0,STARLINK-3296,PAYLOAD,2022-09-22 12:26:21,15.08844762,0.0002011,53.216,164.2055,49.223,310.8937,0.00013732,1.898e-05,0.0,0 STARLINK-3296,1 50168U 21125N   22265.51830670  .00001898  00000-0  13732-3 0  9993,2 50168  53.2160 164.2055 0002011  49.2230 310.8937 15.08844762 45753,6917.866,95.437,541.122,538.34,0.0
50168.0,STARLINK-3296,PAYLOAD,2022-09-22 21:58:41,15.08833758,0.0001836,53.2162,162.4208,48.673,311.4419,7.9044e-05,9.7e-06,0.0,0 STARLINK-3296,1 50168U 21125N   22265.91575313  .00000970  00000-0  79044-4 0  9996,2 50168  53.2162 162.4208 0001836  48.6730 311.4419 15.08833758 45819,6917.899,95.438,541.035,538.494,0.0
50168.0,STARLINK-3296,PAYLOAD,2022-09-22 23:34:04,15.08835254,0.0001666999999999,53.217,162.1228,62.2151,297.901,0.00010754,1.424e-05,0.0,0 STARLINK-3296,1 50168U 21125N   22265.98199327  .00001424  00000-0  10754-3 0  9997,2 50168  53.2170 162.1228 0001667  62.2151 297.9010 15.08835254 42723,6917.895,95.438,540.913,538.607,0.0
50168.0,STARLINK-3296,PAYLOAD,2022-09-23 12:17:08,15.08839934,0.0001708,53.2168,159.744,55.3745,304.7408,0.00017026,2.423e-05,0.0,0 STARLINK-3296,1 50168U 21125N   22266.51190807  .00002423  00000-0  17026-3 0  9990,2 50168  53.2168 159.7440 0001708  55.3745 304.7408 15.08839934 45906,6917.880999999999,95.438,540.927,538.564,0.0
50168.0,STARLINK-3296,PAYLOAD,2022-09-23 20:14:04,15.08849347,0.0001879,53.2162,158.2577,49.6172,310.4984,0.00030491,4.569e-05,0.0,0 STARLINK-3296,1 50168U 21125N   22266.84310624  .00004569  00000-0  30491-3 0  9991,2 50168  53.2162 158.2577 0001879  49.6172 310.4984 15.08849347 42857,6917.852,95.437,541.0169999999998,538.4169999999998,0.0
50168.0,STARLINK-3296,PAYLOAD,2022-09-23 23:24:51,15.08839775,0.0001851,53.2163,157.6632,45.4878,314.6265,0.0001538,2.1600000000000007e-05,0.0,0 STARLINK-3296,1 50168U 21125N   22266.97559108  .00002160  00000-0  15380-3 0  9992,2 50168  53.2163 157.6632 0001851  45.4878 314.6265 15.08839775 42874,6917.880999999999,95.438,541.0269999999998,538.466,0.0
50168.0,STARLINK-3296,PAYLOAD,2022-09-24 20:04:51,15.08849892,0.0001827,53.2163,153.7974,45.3651,314.7489,0.00021101,3.073e-05,0.0,0 STARLINK-3296,1 50168U 21125N   22267.83670440  .00003073  00000-0  21101-3 0  9993,2 50168  53.2163 153.7974 0001827  45.3651 314.7489 15.08849892 46101,6917.85,95.437,540.979,538.451,0.0
50168.0,STARLINK-3296,PAYLOAD,2022-09-25 11:58:42,15.08850202,0.0001972,53.216,150.8251,40.7267,319.3872,0.00013293,1.829e-05,0.0,0 STARLINK-3296,1 50168U 21125N   22268.49910209  .00001829  00000-0  13293-3 0  9996,2 50168  53.2160 150.8251 0001972  40.7267 319.3872 15.08850202 43108,6917.849,95.437,541.078,538.35,0.0
50168.0,STARLINK-3296,PAYLOAD,2022-09-25 18:20:15,15.08840418,0.0001786,53.2161,149.6345,43.3976,316.7156,1.3044e-05,-8.1e-07,0.0,0 STARLINK-3296,1 50168U 21125N   22268.76406515 -.00000081  00000-0  13044-4 0  9991,2 50168  53.2161 149.6345 0001786  43.3976 316.7156 15.08840418 43146,6917.879,95.438,540.98,538.509,0.0
50168.0,STARLINK-3296,PAYLOAD,2022-09-25 19:55:38,15.08842658,0.0001621,53.2165,149.3357,53.2629,306.8512,-2.9131e-06,-3.34e-06,0.0,0 STARLINK-3296,1 50168U 21125N   22268.83030566 -.00000334  00000-0 -29131-5 0  9995,2 50168  53.2165 149.3357 0001621  53.2629 306.8512 15.08842658 46252,6917.871999999999,95.437,540.859,538.616,0.0
50168.0,STARLINK-3296,PAYLOAD,2022-09-26 08:38:44,15.08829858,0.000171,53.2169,146.9573,45.9447,314.1685,-4.275e-05,-9.68e-06,0.0,0 STARLINK-3296,1 50168U 21125N   22269.36023629 -.00000968  00000-0 -42750-4 0  9990,2 50168  53.2169 146.9573 0001710  45.9447 314.1685 15.08829858 43239,6917.911,95.438,540.9590000000002,538.5930000000002,0.0
50168.0,STARLINK-3296,PAYLOAD,2022-09-26 13:24:53,15.08797787,0.0001786999999999,53.217,146.0649,52.2036,307.9117,0.00043499,6.634e-05,0.0,0 STARLINK-3296,1 50168U 21125N   22269.55895560  .00006634  00000-0  43499-3 0  9996,2 50168  53.2170 146.0649 0001787  52.2036 307.9117 15.08797787 46367,6918.009,95.44,541.111,538.638,0.0
50168.0,STARLINK-3296,PAYLOAD,2022-09-26 18:11:02,15.08835898,0.0001669,53.2168,145.1731,49.331,310.7827,7.392699999999999e-06,-1.7e-06,0.0,0 STARLINK-3296,1 50168U 21125N   22269.75767317 -.00000170  00000-0  73927-5 0  9997,2 50168  53.2168 145.1731 0001669  49.3310 310.7827 15.08835898 43292,6917.893,95.438,540.913,538.6030000000002,0.0
50168.0,STARLINK-3296,PAYLOAD,2022-09-26 22:57:12,15.0883687,0.0001769,53.2169,144.2812,47.0991,313.0149,5.0237e-05,5.11e-06,0.0,0 STARLINK-3296,1 50168U 21125N   22269.95639229  .00000511  00000-0  50237-4 0  9995,2 50168  53.2169 144.2812 0001769  47.0991 313.0149 15.08836870 46426,6917.89,95.438,540.979,538.531,0.0
50168.0,STARLINK-3296,PAYLOAD,2022-09-27 14:51:03,15.08837422,0.0001545,53.2169,141.3076,67.3296,292.7859,0.00011355,1.519e-05,0.0,0 STARLINK-3296,1 50168U 21125N   22270.61879089  .00001519  00000-0  11355-3 0  9996,2 50168  53.2169 141.3076 0001545  67.3296 292.7859 15.08837422 46527,6917.888000000001,95.438,540.822,538.684,0.0
50168.0,STARLINK-3296,PAYLOAD,2022-09-28 13:06:27,15.08849841,0.000187,53.2159,137.1451,48.4179,311.6973,0.00028573,4.263e-05,0.0,0 STARLINK-3296,1 50168U 21125N   22271.54614738  .00004263  00000-0  28573-3 0  9996,2 50168  53.2159 137.1451 0001870  48.4179 311.6973 15.08849841 43564,6917.85,95.437,541.009,538.422,0.0
50168.0,STARLINK-3296,PAYLOAD,2022-09-29 00:14:09,15.08838441,0.0002065999999999,53.2165,135.063,43.5971,316.5184,5.9938e-05,6.66e-06,0.0,0 STARLINK-3296,1 50168U 21125N   22272.00983283  .00000666  00000-0  59938-4 0  9995,2 50168  53.2165 135.0630 0002066  43.5971 316.5184 15.08838441 43631,6917.885,95.438,541.179,538.321,0.0
50168.0,STARLINK-3296,PAYLOAD,2022-09-29 09:46:28,15.08831989,0.0001729,53.215,133.2791,44.7354,315.3778,-0.00011795,-2.164e-05,0.0,0 STARLINK-3296,1 50168U 21125N   22272.40727428 -.00002164  00000-0 -11795-3 0  9991,2 50168  53.2150 133.2791 0001729  44.7354 315.3778 15.08831989 46792,6917.905,95.438,540.966,538.5740000000002,0.0
50168.0,STARLINK-3296,PAYLOAD,2022-09-29 20:54:10,15.08839457,0.0001778,53.2148,131.1973,45.6266,314.4871,0.00011026,1.467e-05,0.0,0 STARLINK-3296,1 50168U 21125N   22272.87095419  .00001467  00000-0  11026-3 0  9990,2 50168  53.2148 131.1973 0001778  45.6266 314.4871 15.08839457 46864,6917.882,95.438,540.977,538.5169999999998,0.0
50168.0,STARLINK-3296,PAYLOAD,2022-09-30 11:12:38,15.08849008,0.0001761999999999,53.2145,128.52100000000002,44.7457,315.3677,0.00068141,0.00010576,0.0,0 STARLINK-3296,1 50168U 21125N   22273.46711392  .00010576  00000-0  68141-3 0  9992,2 50168  53.2145 128.5210 0001762  44.7457 315.3677 15.08849008 46957,6917.853,95.437,540.937,538.499,0.0
